[{"OBJECT_NAME":"STARLINK-4269","OBJECT_ID":"2022-076G","EPOCH":"2026-03-09T09:44:44.356416","MEAN_MOTION":15.08833761,"ECCENTRICITY":0.00013797,"INCLINATION":53.2169,"RA_OF_ASC_NODE":105.4028,"ARG_OF_PERICENTER":82.6987,"MEAN_ANOMALY":277.4162,"EPHEMERIS_TYPE":0,"CLASSIFICATION_TYPE":"U","NORAD_CAT_ID":52992,"ELEMENT_SET_NO":999,"REV_AT_EPOCH":20266,"BSTAR":-9.672399e-6,"MEAN_MOTION_DOT":-4.42e-6,"MEAN_MOTION_DDOT":0},{"OBJECT_NAME":"DELTA 2 R\/B(1)","OBJECT_ID":"1992-089B","EPOCH":"2026-03-09T21:18:04.780512","MEAN_MOTION":14.95843552,"ECCENTRICITY":0.00502643,"INCLINATION":20.2848,"RA_OF_ASC_NODE":268.5776,"ARG_OF_PERICENTER":187.692,"MEAN_ANOMALY":172.2737,"EPHEMERIS_TYPE":0,"CLASSIFICATION_TYPE":"U","NORAD_CAT_ID":22276,"ELEMENT_SET_NO":999,"REV_AT_EPOCH":77681,"BSTAR":0.00031307363,"MEAN_MOTION_DOT":4.132e-5,"MEAN_MOTION_DDOT":0}]
